start=new Date('2023-05-06T00:00:00.000Z').valueOf();
sats=[{"GP_ID":"231278390","PERIOD":"95.592","RCS_SIZE":"LARGE","FILE":"3901265","SEMIMAJOR_AXIS":"6925.326","EPOCH":"2023-05-05T03:37:04.234080","MEAN_MOTION_DDOT":"0.0000000000000","SITE":"AFETR","MEAN_MOTION_DOT":"0.00014213","BSTAR":"0.00097091000000","ECCENTRICITY":"0.00013620","TLE_LINE2":"2 48105  53.0539  88.2866 0001362  87.8005 272.3140 15.06407405116316","MEAN_MOTION":"15.06407405","TLE_LINE1":"1 48105U 21027P   23125.15074345  .00014213  00000-0  97091-3 0  9992","REV_AT_EPOCH":"11631","MEAN_ELEMENT_THEORY":"SGP4","OBJECT_TYPE":"PAYLOAD","INCLINATION":"53.0539","ARG_OF_PERICENTER":"87.8005","TIME_SYSTEM":"UTC","EPHEMERIS_TYPE":"0","CENTER_NAME":"EARTH","APOAPSIS":"548.134","MEAN_ANOMALY":"272.3140","CLASSIFICATION_TYPE":"U","OBJECT_ID":"2021-027P","NORAD_CAT_ID":"48105","ELEMENT_SET_NO":"999","RA_OF_ASC_NODE":"88.2866","COUNTRY_CODE":"US","OBJECT_NAME":"STARLINK-2440","DECAY_DATE":null,"REF_FRAME":"TEME","LAUNCH_DATE":"2021-04-07","PERIAPSIS":"546.248"},{"PERIOD":"95.592","GP_ID":"231292651","MEAN_MOTION_DOT":"0.00002620","SITE":"AFETR","BSTAR":"0.00019471000000","EPOCH":"2023-05-05T17:34:21.801792","MEAN_MOTION_DDOT":"0.0000000000000","FILE":"3901877","SEMIMAJOR_AXIS":"6925.364","RCS_SIZE":"LARGE","TLE_LINE1":"1 48106U 21027Q   23125.73219678  .00002620  00000-0  19471-3 0  9992","TLE_LINE2":"2 48106  53.0517 135.6846 0001147  72.4143 287.6971 15.06394843115706","MEAN_MOTION":"15.06394843","ECCENTRICITY":"0.00011470","REV_AT_EPOCH":"11570","MEAN_ELEMENT_THEORY":"SGP4","INCLINATION":"53.0517","OBJECT_TYPE":"PAYLOAD","TIME_SYSTEM":"UTC","ARG_OF_PERICENTER":"72.4143","CENTER_NAME":"EARTH","EPHEMERIS_TYPE":"0","NORAD_CAT_ID":"48106","OBJECT_ID":"2021-027Q","CLASSIFICATION_TYPE":"U","MEAN_ANOMALY":"287.6971","APOAPSIS":"548.024","RA_OF_ASC_NODE":"135.6846","ELEMENT_SET_NO":"999","OBJECT_NAME":"STARLINK-2442","COUNTRY_CODE":"US","LAUNCH_DATE":"2021-04-07","REF_FRAME":"TEME","DECAY_DATE":null,"PERIAPSIS":"546.435"},{"INCLINATION":"53.0523","OBJECT_TYPE":"PAYLOAD","REV_AT_EPOCH":"11565","MEAN_ELEMENT_THEORY":"SGP4","ARG_OF_PERICENTER":"84.2086","TIME_SYSTEM":"UTC","PERIOD":"95.592","GP_ID":"231283483","TLE_LINE1":"1 48107U 21027R   23125.41520528  .00002795  00000-0  20644-3 0  9994","TLE_LINE2":"2 48107  53.0523 137.0967 0001428  84.2086 275.9066 15.06405475115656","MEAN_MOTION":"15.06405475","ECCENTRICITY":"0.00014280","MEAN_MOTION_DDOT":"0.0000000000000","EPOCH":"2023-05-05T09:57:53.736192","SITE":"AFETR","MEAN_MOTION_DOT":"0.00002795","BSTAR":"0.00020644000000","FILE":"3901486","RCS_SIZE":"LARGE","SEMIMAJOR_AXIS":"6925.332","REF_FRAME":"TEME","LAUNCH_DATE":"2021-04-07","DECAY_DATE":null,"OBJECT_NAME":"STARLINK-2443","COUNTRY_CODE":"US","PERIAPSIS":"546.208","MEAN_ANOMALY":"275.9066","CLASSIFICATION_TYPE":"U","OBJECT_ID":"2021-027R","NORAD_CAT_ID":"48107","APOAPSIS":"548.186","CENTER_NAME":"EARTH","EPHEMERIS_TYPE":"0","ELEMENT_SET_NO":"999","RA_OF_ASC_NODE":"137.0967"},{"APOAPSIS":"547.913","NORAD_CAT_ID":"48108","OBJECT_ID":"2021-027S","MEAN_ANOMALY":"274.9466","CLASSIFICATION_TYPE":"U","EPHEMERIS_TYPE":"0","CENTER_NAME":"EARTH","RA_OF_ASC_NODE":"145.4354","ELEMENT_SET_NO":"999","DECAY_DATE":null,"LAUNCH_DATE":"2021-04-07","REF_FRAME":"TEME","COUNTRY_CODE":"US","OBJECT_NAME":"STARLINK-2444","PERIAPSIS":"546.529","GP_ID":"231291072","PERIOD":"95.592","ECCENTRICITY":"0.00009990","TLE_LINE2":"2 48108  53.0521 145.4354 0000999  85.1637 274.9466 15.06397483115575","MEAN_MOTION":"15.06397483","TLE_LINE1":"1 48108U 21027S   23125.78656584  .00002925  00000-0  21515-3 0  9990","FILE":"3901801","RCS_SIZE":"LARGE","SEMIMAJOR_AXIS":"6925.356","SITE":"AFETR","MEAN_MOTION_DOT":"0.00002925","BSTAR":"0.00021515000000","EPOCH":"2023-05-05T18:52:39.288576","MEAN_MOTION_DDOT":"0.0000000000000","OBJECT_TYPE":"PAYLOAD","INCLINATION":"53.0521","MEAN_ELEMENT_THEORY":"SGP4","REV_AT_EPOCH":"11557","TIME_SYSTEM":"UTC","ARG_OF_PERICENTER":"85.1637"},{"PERIAPSIS":"546.230","OBJECT_NAME":"STARLINK-2445","COUNTRY_CODE":"US","REF_FRAME":"TEME","LAUNCH_DATE":"2021-04-07","DECAY_DATE":null,"RA_OF_ASC_NODE":"156.8573","ELEMENT_SET_NO":"999","CENTER_NAME":"EARTH","EPHEMERIS_TYPE":"0","CLASSIFICATION_TYPE":"U","MEAN_ANOMALY":"269.3418","NORAD_CAT_ID":"48109","OBJECT_ID":"2021-027T","APOAPSIS":"548.216","ARG_OF_PERICENTER":"90.7736","TIME_SYSTEM":"UTC","MEAN_ELEMENT_THEORY":"SGP4","REV_AT_EPOCH":"11538","INCLINATION":"53.0522","OBJECT_TYPE":"PAYLOAD","EPOCH":"2023-05-05T11:14:52.004544","MEAN_MOTION_DDOT":"0.0000000000000","MEAN_MOTION_DOT":"-0.00000805","SITE":"AFETR","BSTAR":"-0.00003516100000","SEMIMAJOR_AXIS":"6925.358","FILE":"3901488","RCS_SIZE":"LARGE","TLE_LINE2":"2 48109  53.0522 156.8573 0001434  90.7736 269.3418 15.06396939115382","TLE_LINE1":"1 48109U 21027T   23125.46865746 -.00000805  00000-0 -35161-4 0  9998","MEAN_MOTION":"15.06396939","ECCENTRICITY":"0.00014340","PERIOD":"95.592","GP_ID":"231283567"},{"REV_AT_EPOCH":"11548","MEAN_ELEMENT_THEORY":"SGP4","INCLINATION":"53.0518","OBJECT_TYPE":"PAYLOAD","ARG_OF_PERICENTER":"98.7623","TIME_SYSTEM":"UTC","PERIOD":"95.592","GP_ID":"231278110","MEAN_MOTION_DDOT":"0.0000000000000","EPOCH":"2023-05-05T04:16:52.686912","MEAN_MOTION_DOT":"-0.00000391","SITE":"AFETR","BSTAR":"-0.00000736250000","SEMIMAJOR_AXIS":"6925.356","FILE":"3901271","RCS_SIZE":"LARGE","TLE_LINE2":"2 48110  53.0518 148.1662 0001216  98.7623 261.3503 15.06397514115481","MEAN_MOTION":"15.06397514","TLE_LINE1":"1 48110U 21027U   23125.17838758 -.00000391  00000-0 -73625-5 0  9999","ECCENTRICITY":"0.00012160","OBJECT_NAME":"STARLINK-2447","COUNTRY_CODE":"US","REF_FRAME":"TEME","LAUNCH_DATE":"2021-04-07","DECAY_DATE":null,"PERIAPSIS":"546.379","CENTER_NAME":"EARTH","EPHEMERIS_TYPE":"0","CLASSIFICATION_TYPE":"U","MEAN_ANOMALY":"261.3503","OBJECT_ID":"2021-027U","NORAD_CAT_ID":"48110","APOAPSIS":"548.063","RA_OF_ASC_NODE":"148.1662","ELEMENT_SET_NO":"999"},{"PERIAPSIS":"546.389","REF_FRAME":"TEME","LAUNCH_DATE":"2021-04-07","DECAY_DATE":null,"OBJECT_NAME":"STARLINK-2448","COUNTRY_CODE":"US","ELEMENT_SET_NO":"999","RA_OF_ASC_NODE":"145.4843","CLASSIFICATION_TYPE":"U","MEAN_ANOMALY":"266.4528","NORAD_CAT_ID":"48111","OBJECT_ID":"2021-027V","APOAPSIS":"548.057","CENTER_NAME":"EARTH","EPHEMERIS_TYPE":"0","ARG_OF_PERICENTER":"93.6599","TIME_SYSTEM":"UTC","INCLINATION":"53.0511","OBJECT_TYPE":"PAYLOAD","REV_AT_EPOCH":"11557","MEAN_ELEMENT_THEORY":"SGP4","TLE_LINE2":"2 48111  53.0511 145.4843 0001204  93.6599 266.4528 15.06396934115577","MEAN_MOTION":"15.06396934","TLE_LINE1":"1 48111U 21027V   23125.76813090  .00002934  00000-0  21577-3 0  9997","ECCENTRICITY":"0.00012040","MEAN_MOTION_DDOT":"0.0000000000000","EPOCH":"2023-05-05T18:26:06.509760","SITE":"AFETR","BSTAR":"0.00021577000000","MEAN_MOTION_DOT":"0.00002934","FILE":"3901804","SEMIMAJOR_AXIS":"6925.358","RCS_SIZE":"LARGE","PERIOD":"95.592","GP_ID":"231290888"},{"ELEMENT_SET_NO":"999","RA_OF_ASC_NODE":"164.8795","NORAD_CAT_ID":"48112","OBJECT_ID":"2021-027W","MEAN_ANOMALY":"270.3901","CLASSIFICATION_TYPE":"U","APOAPSIS":"548.122","CENTER_NAME":"EARTH","EPHEMERIS_TYPE":"0","PERIAPSIS":"546.475","LAUNCH_DATE":"2021-04-07","REF_FRAME":"TEME","DECAY_DATE":null,"OBJECT_NAME":"STARLINK-2449","COUNTRY_CODE":"US","MEAN_MOTION":"15.06372276","TLE_LINE2":"2 48112  53.0521 164.8795 0001189  89.7224 270.3901 15.06372276115610","TLE_LINE1":"1 48112U 21027W   23124.83240240  .00009076  00000-0  62788-3 0  9999","ECCENTRICITY":"0.00011890","SITE":"AFETR","BSTAR":"0.00062788000000","MEAN_MOTION_DOT":"0.00009076","EPOCH":"2023-05-04T19:58:39.567360","MEAN_MOTION_DDOT":"0.0000000000000","FILE":"3901186","SEMIMAJOR_AXIS":"6925.434","RCS_SIZE":"LARGE","PERIOD":"95.594","GP_ID":"231270963","TIME_SYSTEM":"UTC","ARG_OF_PERICENTER":"89.7224","INCLINATION":"53.0521","OBJECT_TYPE":"PAYLOAD","REV_AT_EPOCH":"11561","MEAN_ELEMENT_THEORY":"SGP4"},{"GP_ID":"231294403","PERIOD":"95.592","ECCENTRICITY":"0.00014990","TLE_LINE1":"1 48113U 21027X   23125.96259217  .00008423  00000-0  58359-3 0  9993","TLE_LINE2":"2 48113  53.0515 154.6398 0001499  81.9011 278.2148 15.06406732115459","MEAN_MOTION":"15.06406732","RCS_SIZE":"LARGE","FILE":"3901952","SEMIMAJOR_AXIS":"6925.328","SITE":"AFETR","BSTAR":"0.00058359000000","MEAN_MOTION_DOT":"0.00008423","MEAN_MOTION_DDOT":"0.0000000000000","EPOCH":"2023-05-05T23:06:07.963488","OBJECT_TYPE":"PAYLOAD","INCLINATION":"53.0515","REV_AT_EPOCH":"11545","MEAN_ELEMENT_THEORY":"SGP4","TIME_SYSTEM":"UTC","ARG_OF_PERICENTER":"81.9011","APOAPSIS":"548.231","OBJECT_ID":"2021-027X","NORAD_CAT_ID":"48113","MEAN_ANOMALY":"278.2148","CLASSIFICATION_TYPE":"U","EPHEMERIS_TYPE":"0","CENTER_NAME":"EARTH","RA_OF_ASC_NODE":"154.6398","ELEMENT_SET_NO":"999","DECAY_DATE":null,"LAUNCH_DATE":"2021-04-07","REF_FRAME":"TEME","COUNTRY_CODE":"US","OBJECT_NAME":"STARLINK-2450","PERIAPSIS":"546.155"},{"PERIOD":"95.593","GP_ID":"231291170","MEAN_MOTION":"15.06392834","TLE_LINE2":"2 48114  53.0517 150.4172 0001216  93.3607 266.7521 15.06392834115501","TLE_LINE1":"1 48114U 21027Y   23125.79068970  .00002567  00000-0  19117-3 0  9991","ECCENTRICITY":"0.00012160","BSTAR":"0.00019117000000","SITE":"AFETR","MEAN_MOTION_DOT":"0.00002567","MEAN_MOTION_DDOT":"0.0000000000000","EPOCH":"2023-05-05T18:58:35.590080","RCS_SIZE":"LARGE","FILE":"3901813","SEMIMAJOR_AXIS":"6925.371","INCLINATION":"53.0517","OBJECT_TYPE":"PAYLOAD","REV_AT_EPOCH":"11550","MEAN_ELEMENT_THEORY":"SGP4","TIME_SYSTEM":"UTC","ARG_OF_PERICENTER":"93.3607","NORAD_CAT_ID":"48114","OBJECT_ID":"2021-027Y","MEAN_ANOMALY":"266.7521","CLASSIFICATION_TYPE":"U","APOAPSIS":"548.078","CENTER_NAME":"EARTH","EPHEMERIS_TYPE":"0","ELEMENT_SET_NO":"999","RA_OF_ASC_NODE":"150.4172","LAUNCH_DATE":"2021-04-07","REF_FRAME":"TEME","DECAY_DATE":null,"OBJECT_NAME":"STARLINK-2451","COUNTRY_CODE":"US","PERIAPSIS":"546.393"}];
